NORAD_CAT_ID,OBJECT_NAME,OBJECT_TYPE,EPOCH,MEAN_MOTION,ECCENTRICITY,INCLINATION,RA_OF_ASC_NODE,ARG_OF_PERICENTER,MEAN_ANOMALY,BSTAR,MEAN_MOTION_DOT,MEAN_MOTION_DDOT,TLE_LINE0,TLE_LINE1,TLE_LINE2,SEMIMAJOR_AXIS,PERIOD,APOGEE,PERIGEE,DECAYED
55648.0,STARLINK-5501,PAYLOAD,2023-02-22 16:00:00,15.9459415,0.0038048,69.9999,136.7837,163.3413,236.6313,-0.0026658,-0.01088947,0.00036319,0 STARLINK-5501,1 55648U 23021W   23053.66667824 -.01088947  36319-3 -26658-2 0  9997,2 55648  69.9999 136.7837 0038048 163.3413 236.6313 15.94594150  1301,6667.582,90.305,314.816,264.079,0.0
55648.0,STARLINK-5501,PAYLOAD,2023-02-22 22:00:00,15.94096103,0.0034652,69.9995,136.0547,163.4254,230.9777,-0.0029171,-0.01144816,0.00039629,0 STARLINK-5501,1 55648U 23021W   23053.91667824 -.01144816  39629-3 -29171-2 0  9993,2 55648  69.9995 136.0547 0034652 163.4254 230.9777 15.94096103  1305,6668.971,90.333,313.946,267.727,0.0
55648.0,STARLINK-5501,PAYLOAD,2023-02-23 08:00:01,15.9318327,0.0030224,69.9999,134.8419,165.1654,98.9328,-0.0029763,-0.01096808,0.00036277,0 STARLINK-5501,1 55648U 23021W   23054.33334491 -.01096808  36277-3 -29763-2 0  9991,2 55648  69.9999 134.8419 0030224 165.1654  98.9328 15.93183270  1403,6671.518,90.385,313.547,273.219,0.0
55648.0,STARLINK-5501,PAYLOAD,2023-02-23 14:00:01,15.92662717,0.002779,69.9998,134.1143,166.0743,91.1921,-0.0031212,-0.01111093,0.00036959,0 STARLINK-5501,1 55648U 23021W   23054.58334491 -.01111093  36959-3 -31212-2 0  9991,2 55648  69.9998 134.1143 0027790 166.0743  91.1921 15.92662717  1302,6672.972,90.415,313.381,276.293,0.0
55648.0,STARLINK-5501,PAYLOAD,2023-02-23 16:00:00,15.92480787,0.0026916,70.0001,133.8722,166.8087,208.0787,-0.0031349,-0.01102842,0.00036388,0 STARLINK-5501,1 55648U 23021W   23054.66667824 -.01102842  36388-3 -31349-2 0  9998,2 55648  70.0001 133.8722 0026916 166.8087 208.0787 15.92480787  1457,6673.48,90.425,313.308,277.383,0.0
55648.0,STARLINK-5501,PAYLOAD,2023-02-23 22:00:00,15.91971638,0.0023975,69.9997,133.1456,168.143,199.2735,-0.0033567,-0.01141257,0.00038565,0 STARLINK-5501,1 55648U 23021W   23054.91667824 -.01141257  38565-3 -33567-2 0  9992,2 55648  69.9997 133.1456 0023975 168.1430 199.2735 15.91971638  1301,6674.903,90.454,312.771,280.765,0.0
55648.0,STARLINK-5501,PAYLOAD,2023-02-24 02:00:01,15.91586062,0.0022838,69.9999,132.6617,169.3415,72.8482,-0.0032506,-0.0108101,0.00034756,0 STARLINK-5501,1 55648U 23021W   23055.08334491 -.01081010  34756-3 -32506-2 0  9992,2 55648  69.9999 132.6617 0022838 169.3415  72.8482 15.91586062  1521,6675.981,90.476,313.093,282.599,0.0
55648.0,STARLINK-5501,PAYLOAD,2023-02-24 08:00:01,15.91060537,0.00201,70.0,131.9365,171.9639,61.9667,-0.003383,-0.01088852,0.0003504,0 STARLINK-5501,1 55648U 23021W   23055.33334491 -.01088852  35040-3 -33830-2 0  9999,2 55648  70.0000 131.9365 0020100 171.9639  61.9667 15.91060537  1568,6677.451,90.506,312.738,285.894,0.0
55648.0,STARLINK-5501,PAYLOAD,2023-02-24 14:00:01,15.90537256,0.0017824,69.9998,131.2115,174.6428,50.5506,-0.0035219,-0.01099102,0.00035469,0 STARLINK-5501,1 55648U 23021W   23055.58334491 -.01099102  35469-3 -35219-2 0  9994,2 55648  69.9998 131.2115 0017824 174.6428  50.5506 15.90537256  1306,6678.915,90.535,312.685,288.876,0.0
55648.0,STARLINK-5501,PAYLOAD,2023-02-24 18:00:00,15.90169348,0.0016426,69.9997,130.7289,177.3819,281.7306,-0.0035108,-0.01073169,0.00033816,0 STARLINK-5501,1 55648U 23021W   23055.75001157 -.01073169  33816-3 -35108-2 0  9999,2 55648  69.9997 130.7289 0016426 177.3819 281.7306 15.90169348  1637,6679.946,90.556,312.783,290.838,0.0
55648.0,STARLINK-5501,PAYLOAD,2023-02-24 22:00:00,15.89858195,0.0014591,69.9996,130.2458,180.9027,151.8941,-0.0038469,-0.01153848,0.00038545,0 STARLINK-5501,1 55648U 23021W   23055.91667824 -.01153848  38545-3 -38469-2 0  9996,2 55648  69.9996 130.2458 0014591 180.9027 151.8941 15.89858195  1300,6680.817,90.574,312.43,292.934,0.0
55648.0,STARLINK-5501,PAYLOAD,2023-02-25 02:00:01,15.89460214,0.0013472,70.0002,129.7635,184.2949,22.0083,-0.003637,-0.0106839,0.00033307,0 STARLINK-5501,1 55648U 23021W   23056.08334491 -.01068390  33307-3 -36370-2 0  9993,2 55648  70.0002 129.7635 0013472 184.2949  22.0083 15.89460214  1686,6681.932,90.597,312.799,294.795,0.0
55648.0,STARLINK-5501,PAYLOAD,2023-02-25 08:00:01,15.88930169,0.001145,70.0,129.0402,192.0474,4.0923,-0.0037458,-0.01069107,0.00033178,0 STARLINK-5501,1 55648U 23021W   23056.33334491 -.01069107  33178-3 -37458-2 0  9992,2 55648  70.0000 129.0402 0011450 192.0474   4.0923 15.88930169  1721,6683.418,90.627,312.936,297.631,0.0
55648.0,STARLINK-5501,PAYLOAD,2023-02-25 14:00:01,15.88412337,0.0009964,69.9996,128.3179,202.1339,343.3587,-0.0039153,-0.01087379,0.00034065,0 STARLINK-5501,1 55648U 23021W   23056.58334491 -.01087379  34065-3 -39153-2 0  9990,2 55648  69.9996 128.3179 0009964 202.1339 343.3587 15.88412337  1766,6684.871,90.657,313.396,300.075,0.0
55648.0,STARLINK-5501,PAYLOAD,2023-02-25 22:00:00,15.87725415,0.0008585,69.9995,127.3548,219.4144,71.1439,-0.0042218,-0.01017097,0.0,0 STARLINK-5501,1 55648U 23021W   23056.91667824 -.01017097  00000-0 -42218-2 0  9991,2 55648  69.9995 127.3548 0008585 219.4144  71.1439 15.87725415  1818,6686.799,90.696,314.404,302.923,0.0
55648.0,STARLINK-5501,PAYLOAD,2023-02-26 06:00:00,15.87032692,0.0008563,69.9993,126.3935,242.7275,152.0468,-0.0044491,-0.01033612,0.0,0 STARLINK-5501,1 55648U 23021W   23057.25001157 -.01033612  00000-0 -44491-2 0  9996,2 55648  69.9993 126.3935 0008563 242.7275 152.0468 15.87032692  1870,6688.744,90.735,316.337,304.882,0.0
55648.0,STARLINK-5501,PAYLOAD,2023-02-26 14:00:01,15.86279573,0.0009024,69.9998,125.4333,259.2775,238.8924,-0.0042734,-0.00964621,0.0,0 STARLINK-5501,1 55648U 23021W   23057.58334491 -.00964621  00000-0 -42734-2 0  9992,2 55648  69.9998 125.4333 0009024 259.2775 238.8924 15.86279573  1306,6690.861,90.778,318.764,306.688,0.0
55648.0,STARLINK-5501,PAYLOAD,2023-02-26 22:00:00,15.85579627,0.0008523,69.9994,124.4731,268.759,331.9374,-0.0044783,-0.00975148,0.0,0 STARLINK-5501,1 55648U 23021W   23057.91667824 -.00975148  00000-0 -44783-2 0  9990,2 55648  69.9994 124.4731 0008523 268.7590 331.9374 15.85579627  1975,6692.83,90.819,320.399,308.991,0.0
55648.0,STARLINK-5501,PAYLOAD,2023-02-27 14:00:01,15.84183405,0.0007117,69.9998,122.5569,271.8449,171.3597,-0.0049424,-0.01001461,0.0,0 STARLINK-5501,1 55648U 23021W   23058.58334491 -.01001461  00000-0 -49424-2 0  9991,2 55648  69.9998 122.5569 0007117 271.8449 171.3597 15.84183405  2083,6696.762,90.899,323.393,313.861,0.0
55648.0,STARLINK-5501,PAYLOAD,2023-02-27 22:00:01,15.83479196,0.0004558,70.0003,121.6007,282.1646,261.0883,-0.005106,-0.00998504,0.0,0 STARLINK-5501,1 55648U 23021W   23058.91668981 -.00998504  00000-0 -51060-2 0  9993,2 55648  70.0003 121.6007 0004558 282.1646 261.0883 15.83479196  1303,6698.747,90.939,323.666,317.559,0.0
55648.0,STARLINK-5501,PAYLOAD,2023-02-28 14:00:01,15.82091533,0.0003711,69.9997,119.6905,265.8573,114.7488,-0.0056658,-0.01032772,0.0,0 STARLINK-5501,1 55648U 23021W   23059.58334491 -.01032772  00000-0 -56658-2 0  9998,2 55648  69.9997 119.6905 0003711 265.8573 114.7488 15.82091533  1302,6702.664,91.019,327.016,322.041,0.0
55648.0,STARLINK-5501,PAYLOAD,2023-02-28 16:00:00,15.81871886,0.0003536,69.9999,119.4519,266.58,228.4866,-0.0053685,-0.00975109,0.0,0 STARLINK-5501,1 55648U 23021W   23059.66667824 -.00975109  00000-0 -53685-2 0  9992,2 55648  69.9999 119.4519 0003536 266.5800 228.4866 15.81871886  2253,6703.284,91.031,327.52,322.779,0.0
55648.0,STARLINK-5501,PAYLOAD,2023-02-28 22:00:00,15.81348695,0.0003608,69.9997,118.7362,277.0364,201.0313,-0.0055646,-0.00985202,0.0,0 STARLINK-5501,1 55648U 23021W   23059.91667824 -.00985202  00000-0 -55646-2 0  9994,2 55648  69.9997 118.7362 0003608 277.0364 201.0313 15.81348695  1307,6704.763,91.062,329.047,324.209,0.0
55648.0,STARLINK-5501,PAYLOAD,2023-03-01 14:00:01,15.79956728,0.0003632,69.9998,116.8326,267.4449,42.9568,-0.0061133,-0.01011661,0.0,0 STARLINK-5501,1 55648U 23021W   23060.58334491 -.01011661  00000-0 -61133-2 0  9998,2 55648  69.9998 116.8326 0003632 267.4449  42.9568 15.79956728  2394,6708.7,91.142,333.002,328.129,0.0
55648.0,STARLINK-5501,PAYLOAD,2023-03-01 22:00:00,15.79232537,0.0003593,69.9994,115.8811,275.7354,129.5771,-0.0061627,-0.00989225,0.0,0 STARLINK-5501,1 55648U 23021W   23060.91667824 -.00989225  00000-0 -61627-2 0  9991,2 55648  69.9994 115.8811 0003593 275.7354 129.5771 15.79232537  1304,6710.751,91.184,335.027,330.205,0.0
55648.0,STARLINK-5501,PAYLOAD,2023-03-02 20:00:01,15.77282977,0.0003449,69.9998,113.2721,267.2076,304.7167,-0.0066648,-0.00980573,0.0,0 STARLINK-5501,1 55648U 23021W   23061.83334491 -.00980573  00000-0 -66648-2 0  9999,2 55648  69.9998 113.2721 0003449 267.2076 304.7167 15.77282977  1304,6716.28,91.296,340.461,335.828,0.0
55648.0,STARLINK-5501,PAYLOAD,2023-03-03 12:00:00,15.75865172,0.0003627,70.0002,111.3796,275.9555,118.5696,-0.007037,-0.009731,0.0,0 STARLINK-5501,1 55648U 23021W   23062.50001157 -.00973100  00000-0 -70370-2 0  9999,2 55648  70.0002 111.3796 0003627 275.9555 118.5696 15.75865172  2705,6720.307,91.378,344.61,339.735,0.0
55648.0,STARLINK-5501,PAYLOAD,2023-03-03 14:00:01,15.75700129,0.0003494,69.9995,111.1429,268.8897,238.2163,-0.0072077,-0.00987643,0.0,0 STARLINK-5501,1 55648U 23021W   23062.58334491 -.00987643  00000-0 -72077-2 0  9990,2 55648  69.9995 111.1429 0003494 268.8897 238.2163 15.75700129  1300,6720.777,91.388,344.99,340.293,0.0
55648.0,STARLINK-5501,PAYLOAD,2023-03-03 22:00:00,15.75012629,0.0003491,69.9997,110.1977,276.4343,320.4801,-0.0076532,-0.01031262,0.0,0 STARLINK-5501,1 55648U 23021W   23062.91667824 -.01031262  00000-0 -76532-2 0  9994,2 55648  69.9997 110.1977 0003491 276.4343 320.4801 15.75012629  1301,6722.732,91.428,346.944,342.25,0.0
